ONEWEB-0534             
1 55797U 23029B   23239.58334491 -.01022112  00000+0 -23348+0 0  9994
2 55797  86.7463 123.9714 0001963  99.2921  51.5380 14.59025563  5802
ONEWEB-0556             
1 55798U 23029C   23239.58334491 -.01000700  00000+0 -22262+0 0  9998
2 55798  86.7334 123.9921 0002681 111.8406 196.8214 14.60162374  5732
ONEWEB-0562             
1 55799U 23029D   23239.58334491 -.01029905  00000+0 -23050+0 0  9993
2 55799  86.7395 123.9545 0002477 123.4883  37.2927 14.59979135 26116
ONEWEB-0563             
1 55800U 23029E   23239.58334491 -.01063110  00000+0 -25030+0 0  9992
2 55800  86.7486 124.0854 0001481 103.1556 355.5589 14.57770323  5743
ONEWEB-0564             
1 55801U 23029F   23239.58334491 -.01019000  00000+0 -23205+0 0  9994
2 55801  86.7423 123.9664 0003037 121.1974  93.4365 14.59151684  5739
ONEWEB-0638             
1 55802U 23029G   23239.58334491  .00000014  00000+0  00000+0 0  9995
2 55802  87.8064 133.7551 0003468 288.3191 209.8368 13.38814751 25467
ONEWEB-0639             
1 55803U 23029H   23239.21586041  .00000567  00000+0  13888-2 0  9990
2 55803  87.9285 148.9345 0002834 103.3568 256.7880 13.19525765 23712
ONEWEB-0640             
1 55804U 23029J   23239.58334491  .00000014  00000+0  00000+0 0  9997
2 55804  87.7470 133.8162 0001340   3.2679  49.2116 13.40168190 25469
